PALAPA D                
1 35812U 09046A   17345.46290701 -.00000365  00000-0  00000-0 0  9992
2 35812   0.0223  57.7087 0002400 239.7222  62.5498  1.00270757 30494
